PARTNER,NAME1,SEARCHTERM,STREET,CITY,COUNTRY,POSTAL_CODE
ZMRO,A Veilleux Transport,A Veilleux,545 Lindbergh,Laval,US,H7P 2N8
ZMRO,ARCBEST (PANTHER)             ,ARCBEST (P,8401 McClure Dr.,Fort Smith,US,72916
ZMRO,Bestway Transportation,Bestway Tr,1195 N. Interstate 45,Palmer,US,75152
ZMRO,Big E Transportation,Big E Tran,3901 West Broad St,Richmond,US,23230
ZMRO,Building Systems Transportation,Building S,460 East Hight St,London,CA,43140
ZMRO,C.A.T. Global Inc.,C.A.T. Glo,4 Transport Street,Coteau du Lac,US,J0P 1B0
ZMRO,C.H. Robinson Worldwide Inc,C.H. Robin,14701 Charleson Road,Eden Prairie,CA,55347
ZMRO,Cal-Ark International Inc,Cal-Ark In,12103 I-30,Little Rock,US,72209
ZMRO,Clary Trucking Inc,Clary Truc,1177 Eastern Avenue,Chillicothe,US,45601
ZMRO,Concord Transportation,Concord Tr,96 Disco Rd.,Etobicoke,CA,M9W 0A3
ZMRO,Coyote Logistics,Coyote Log,"2545 W. Diversey Ave, 3rd Floor",Chicago,US,60647
ZMRO,Day & Ross Inc,Day & Ross,398 Main St,Hartland,US,e7P1C6
ZMRO,Estes Express Lines Inc,Estes Expr,3901 West Broad St,Richmond,CA,23230
ZMRO,FedEx Freight (LTL),FedEx Frei,2200 Forward Drive,Harrison,US,72601
ZMRO,G E Sheldon,G E Sheldo,9475 HWY 416 W,Robards,US,42452
ZMRO,Group Roberts,Group Robe,20 Marie-Victorin Boulevard,Boucherville,US,J4B 1V5
ZMRO,Integrity Transport Inc,Integrity ,4359 St. Rt. 160. ,Gallipolis,US,45631
ZMRO,JB Hunt,JB Hunt,615 J.B Hunt Corporate Drive,Lowell,US,72745
ZMRO,JCG,JCG,1200 PÈRE DANIEL ,TROIS-RIVIERES,US,G9A 5R6
ZMRO,Landstar Ranger Inc,Landstar R,4057 Carmicheal Ave,Jacksonville,US,32207
ZMRO,Loomis Express,Loomis Exp,200 Westcreek Blvd,Brampton,US,L6T 5T7
ZMRO,Manitoulin Transport,Manitoulin,154 HWY 140b Box 390 ,Gore Bay,US,P0P 1H0
ZMRO,Melton Truck Lines,Melton Tru,808 North 161st East Avenue,Tulsa,US,74116
ZMRO,Mid Con Carriers Corp,Mid Con Ca,9600 S. Sunnylane Rd,Oklahoma City,US,73160
ZMRO,Midwest Specialized,Midwest Sp,PO Box 5418,Rochester,US,55903
ZMRO,MJM EXPRESS LLC               ,MJM EXPRES,11892 Pleasant Valley Road,Chillicothe,CA,45601
ZMRO,P and P Trucking Inc,P and P Tr,2807 QUALITY DR,SEARCY,US,72143
ZMRO,P&S Transportation Inc,P&S Transp,1810 Avenue C ,Ensley,CA,35218
ZMRO,Pegasus Transportation,Pegasus Tr,2903 S English Station Road,Louisville,US,40299
ZMRO,Peninsula Transport Inc.,Peninsula ,1010 S. 336th St. Suite 202,Federal Way,US,98003
ZMRO,Purolator Courier Ltd.,Purolator ,5995 Avebury Road,Mississauga,CA,L5R 3P9
ZMRO,Rich Logistics,Rich Logis,6011 Scott Hamilton Drive,Little Rock,US,72209
ZMRO,Silver Arrow Express,Silver Arr,3814  11th St,Rockford,CA,61109
ZMRO,Southland Transportation,Southland ,PO Box 99 - 7925 hwy 601 N ,Boonville,US,27011
ZMRO,Stallion Transportation,Stallion T,2102 N. Main,Beebe,US,72012
ZMRO,Swift Transportation Services LLC,Swift Tran,2200 S. 75th Ave,Phoenix,US,85043
ZMRO,Swift Transportation Services LLC,Swift Tran,2200 S. 75th Ave,Phoenix,US,85043
ZMRO,Transport Papineau,Transport ,851 boul. Roland-Godard,Saint-Jérôme,CA,J7Y 4C2
ZMRO,UPS,UPS,1000 Semmes Ave,Richmond,US,23224
ZMRO,USF Holland,USF Hollan,700 S Waverly Rd,Holland,US,49423
ZMRO,USF Reddaway,USF Reddaw,7720 SW Mohawk St Building H,Tualatin,US,98062
ZMRO,Van Kam Freightways,Van Kam Fr,10155 Grace Road,Surrey,US,V3V 3V7
ZMRO,WALTS DRIVE A WAY SERVICE     ,WALTS DRIV,4600 Hitch and Peters Rd,Evansville,US,47711
ZMRO,Western Express Inc.,Western Ex,7135 Centennial Place,Nashville,CA,37209
ZMRO,A D TRANSPORT                 ,A D TRANSP,5601 BELLEVILLE RD,CANTON,,48188
ZMRO,A. DUIE PYLE,A. DUIE PY,650 Westtown Road,West Chester,,19381
ZMRO,ABF MULTIMODAL                ,ABF MULTIM,8401 McClure Dr.,FORT SMITH,,72903
ZMRO,ALA-GTM,ALA-GTM,Road to Colombia 3200,Gral. Escobedo,,6050
ZMRO,ALMEX,ALMEX,J. Cantú Leal no. 650- C y D Colonia Buenos Aires,Monterrey,,64800
ZMRO,CARLILE TRANSPORTATION SY     ,CARLILE TR,1800 East 1 St Ave,Anchorage,,99501
ZMRO,CEVA,CEVA,1457 N Main St,Delphos,,45833
ZMRO,CFI LOGISTICA ,CFI LOGIST,Av. Camino al ITESO 8900 E3 B3 INT3B Col. Parque Industrial Tecnológico,Tlaquepaque,,45609
ZMRO,CMA CGM (AMERICA) LLC         ,CMA CGM (A,5701 Lake Wright Dr.,Norfolk,,23502
ZMRO,CRANE,CRANE,2501 W ROSECRANS AVE,Compton,,90220
ZMRO,DAMCO PANAMA SA               ,DAMCO PANA,"Torre Norte, Piso 5, Business Park",Panamá,,
ZMRO,DAMCO USA                     ,DAMCO USA ,180 Park Avenue,Florham Park,,7932
ZMRO,DHL EXPRESS                   ,DHL EXPRES,1210 S Pine Island Rd Suite 400,Plantation,,33324
ZMRO,DHL EXPRESS (PANAMA S A)      ,DHL EXPRES,Av Centenario,Panamá,,
ZMRO,DHL GLOBAL FORWARDING         ,DHL GLOBAL,570 Polaris Pkwy,Westerville,,43082
ZMRO,ESTAFETA,ESTAFETA,Hamburgo 213 Colonia Juarez,Cuauhtemoc,,6600
ZMRO,FEDEX CUSTOM CRITICAL         ,FEDEX CUST,2088 S ARLINGTON ROAD,AKRON,,44306
ZMRO,FEDEX EXPRESS                 ,FEDEX EXPR,942 South Shady Grove Road,MEMPHIS,,38120
ZMRO,FRONTIER LEASING              ,FRONTIER L,5950 Gateway Dr,Joplin,,64804
ZMRO,GEHLEN SCHOLS TRANS & LOG     ,GEHLEN SCH,"Steenbergstraat 31, 6465 AB Kerkrade, ",Netherlands,,
ZMRO,HOEGH AUTOLINER,HOEGH AUTO,1 Westbrook Corporate Center Suite 300,Westchester,,60154
ZMRO,JAN DE RIJK AUTOMOTIVE TRANS,JAN DE RIJ,"De Hooge Akker 6, 5661 NG Geldrop, ",,,
ZMRO,KINDERSLEY TRANSPORT          ,KINDERSLEY,2411 Wentz Ave,Saskatoon,,S7K 3V6
ZMRO,KUEHNE & NAGEL,KUEHNE & N,Exchange Pl 10,Jersey City,,7302
ZMRO,L WATKINS & ASSOCIATES IN     ,L WATKINS ,3601 N. Travis St.,Sherman,,75091
ZMRO,MEXICANA DE PAQUETERIA UGENTE ,MEXICANA D,Eje 116 Esquina Carretera 57 s/n Zona Industrial,San Luis Potosí,,
ZMRO,MIDWEST MOTOR EXPRESS INC     ,MIDWEST MO,5015 East main Ave,Bismarck,,58502
ZMRO,N AND M TRANSFER              ,N AND M TR,630 Muttart Rd.,Neenah,,54956
ZMRO,NYK,NYK,377 E. Butterfield Rd. 5th floor,Lomard,,60148
ZMRO,PANALPINA INC                 ,PANALPINA ,"703 Waterford Way, Suite 890",Miami,,33126
ZMRO,PASCHALL TRUCK LINES          ,PASCHALL T,3443 US 641 South,Murray,,42071
ZMRO,SOUTHWEST COURIER & LOGISTICS     ,SOUTHWEST ,800 Kuehn Ct,Neenah,,54956
ZMRO,TRAGUZA,TRAGUZA,ALLENDE 147 ,GRAL ZUAZUA,,65750
ZMRO,TRANS-EXPEDITE INC            ,TRANS-EXPE,6013 Randolph Blvd.,San Antonio,,78233
ZMRO,TRANSGROUP WORLDWIDE LOG      ,TRANSGROUP,18850 8th Ave S,Seattle,,98148
ZMRO,TRANSPLACE,TRANSPLACE,3010 Gaylord Parkway,Frisco,,75034
ZMRO,TRANSPORT BOURASSA        ,TRANSPORT ,"800 Rue de Dijon,",Saint-Jean-sur-Richelieu,,J3B 8G3
ZMRO,TRANSPORTES GUITIEREZ,TRANSPORTE,27681 Cummings Rd,Millbury,,43447
ZMRO,"TRUCK KING, LLC               ",TRUCK KING,6421 N I35 ,Denton,,76207
ZMRO,TRY HOURS INC                 ,TRY HOURS ,3640 Briarfield Blvd,Maumee,,43537
ZMRO,UPS FREIGHT                   ,UPS FREIGH,1000 Semmes Avenue,Richmond ,,23218
ZMRO,"UPS-SCS  ""AIR""                     ","UPS-SCS  """,55 Glenlake Pkwy NE,Atlanta,,30328
ZMRO,DEDICATED LOGISTICS           ,DEDICATED ,3011 Hwy 82 West ,Crossett,,71635
ZMRO,McMullen Transportation,McMullen T,11350 State Route 41 N,Greenfield,US,45123
ZMRO,WHEELER TRUCKING              ,WHEELER TR,500 E. Water Street,Wilmington,,90744
ZMRO,Woodland Truck Line,Woodland T,7439 Sheridan Road,Flushing,,48433
